{"fetched_at":"2026-07-07T07:58:10.717Z","source":"https://celestrak.org/NORAD/elements/gp.php?GROUP=oneweb&FORMAT=JSON","constellation":"oneweb","records":[{"OBJECT_NAME":"ONEWEB-0509","OBJECT_ID":"2022-138Q","EPOCH":"2026-07-06T17:29:00.031776","CLASSIFICATION_TYPE":"U","MEAN_MOTION":13.19724498,"ECCENTRICITY":0.00019,"INCLINATION":87.9194,"RA_OF_ASC_NODE":301.0747,"ARG_OF_PERICENTER":105.2113,"MEAN_ANOMALY":254.923,"EPHEMERIS_TYPE":0,"NORAD_CAT_ID":54127,"ELEMENT_SET_NO":999,"REV_AT_EPOCH":17938,"BSTAR":0.000066663,"MEAN_MOTION_DOT":4e-7,"MEAN_MOTION_DDOT":0},{"OBJECT_NAME":"ONEWEB-0510","OBJECT_ID":"2022-138R","EPOCH":"2026-07-06T16:15:14.361984","CLASSIFICATION_TYPE":"U","MEAN_MOTION":13.20771205,"ECCENTRICITY":0.000217,"INCLINATION":87.919,"RA_OF_ASC_NODE":270.5524,"ARG_OF_PERICENTER":87.4692,"MEAN_ANOMALY":272.6689,"EPHEMERIS_TYPE":0,"NORAD_CAT_ID":54128,"ELEMENT_SET_NO":999,"REV_AT_EPOCH":18185,"BSTAR":-0.00083045,"MEAN_MOTION_DOT":-0.00000325,"MEAN_MOTION_DDOT":0},{"OBJECT_NAME":"ONEWEB-0511","OBJECT_ID":"2022-138S","EPOCH":"2026-07-06T17:24:26.930880","CLASSIFICATION_TYPE":"U","MEAN_MOTION":13.19727329,"ECCENTRICITY":0.000166,"INCLINATION":87.9189,"RA_OF_ASC_NODE":301.0772,"ARG_OF_PERICENTER":99.4346,"MEAN_ANOMALY":260.6974,"EPHEMERIS_TYPE":0,"NORAD_CAT_ID":54129,"ELEMENT_SET_NO":999,"REV_AT_EPOCH":17941,"BSTAR":0.00010885,"MEAN_MOTION_DOT":5.7e-7,"MEAN_MOTION_DDOT":0},{"OBJECT_NAME":"ONEWEB-0512","OBJECT_ID":"2022-138T","EPOCH":"2026-07-06T17:13:05.431008","CLASSIFICATION_TYPE":"U","MEAN_MOTION":13.19726469,"ECCENTRICITY":0.0001716,"INCLINATION":87.9183,"RA_OF_ASC_NODE":301.0825,"ARG_OF_PERICENTER":108.1194,"MEAN_ANOMALY":252.0125,"EPHEMERIS_TYPE":0,"NORAD_CAT_ID":54130,"ELEMENT_SET_NO":999,"REV_AT_EPOCH":17938,"BSTAR":0.00017215,"MEAN_MOTION_DOT":8.2e-7,"MEAN_MOTION_DDOT":0},{"OBJECT_NAME":"ONEWEB-0513","OBJECT_ID":"2022-138U","EPOCH":"2026-07-06T17:09:36.698112","CLASSIFICATION_TYPE":"U","MEAN_MOTION":13.20269597,"ECCENTRICITY":0.0001186,"INCLINATION":87.919,"RA_OF_ASC_NODE":301.0247,"ARG_OF_PERICENTER":120.9013,"MEAN_ANOMALY":239.2237,"EPHEMERIS_TYPE":0,"NORAD_CAT_ID":54131,"ELEMENT_SET_NO":999,"REV_AT_EPOCH":17929,"BSTAR":0.000033221,"MEAN_MOTION_DOT":2.6e-7,"MEAN_MOTION_DDOT":0},{"OBJECT_NAME":"ONEWEB-0514","OBJECT_ID":"2022-138V","EPOCH":"2026-07-06T08:29:57.747840","CLASSIFICATION_TYPE":"U","MEAN_MOTION":13.1972573,"ECCENTRICITY":0.00019755,"INCLINATION":87.9191,"RA_OF_ASC_NODE":301.1505,"ARG_OF_PERICENTER":96.8999,"MEAN_ANOMALY":263.2358,"EPHEMERIS_TYPE":0,"NORAD_CAT_ID":54132,"ELEMENT_SET_NO":999,"REV_AT_EPOCH":17935,"BSTAR":0.0001225499,"MEAN_MOTION_DOT":6.2e-7,"MEAN_MOTION_DDOT":0},{"OBJECT_NAME":"ONEWEB-0515","OBJECT_ID":"2022-138W","EPOCH":"2026-07-06T15:55:53.145120","CLASSIFICATION_TYPE":"U","MEAN_MOTION":13.20771135,"ECCENTRICITY":0.0002907,"INCLINATION":87.9198,"RA_OF_ASC_NODE":270.5504,"ARG_OF_PERICENTER":94.6004,"MEAN_ANOMALY":265.5462,"EPHEMERIS_TYPE":0,"NORAD_CAT_ID":54133,"ELEMENT_SET_NO":999,"REV_AT_EPOCH":18187,"BSTAR":0.000051649,"MEAN_MOTION_DOT":3.4e-7,"MEAN_MOTION_DDOT":0},{"OBJECT_NAME":"ONEWEB-0516","OBJECT_ID":"2022-138X","EPOCH":"2026-07-06T16:59:26.009952","CLASSIFICATION_TYPE":"U","MEAN_MOTION":13.19725814,"ECCENTRICITY":0.0002031,"INCLINATION":87.9185,"RA_OF_ASC_NODE":301.0845,"ARG_OF_PERICENTER":104.2289,"MEAN_ANOMALY":255.9069,"EPHEMERIS_TYPE":0,"NORAD_CAT_ID":54134,"ELEMENT_SET_NO":999,"REV_AT_EPOCH":17940,"BSTAR":-0.00023009,"MEAN_MOTION_DOT":-7.9e-7,"MEAN_MOTION_DDOT":0},{"OBJECT_NAME":"ONEWEB-0517","OBJECT_ID":"2022-138Y","EPOCH":"2026-07-06T16:29:53.127744","CLASSIFICATION_TYPE":"U","MEAN_MOTION":13.19726002,"ECCENTRICITY":0.0001726,"INCLINATION":87.9192,"RA_OF_ASC_NODE":301.0824,"ARG_OF_PERICENTER":93.7732,"MEAN_ANOMALY":266.3598,"EPHEMERIS_TYPE":0,"NORAD_CAT_ID":54135,"ELEMENT_SET_NO":999,"REV_AT_EPOCH":17940,"BSTAR":-0.000059669,"MEAN_MOTION_DOT":-1.1e-7,"MEAN_MOTION_DDOT":0},{"OBJECT_NAME":"ONEWEB-0518","OBJECT_ID":"2022-138Z","EPOCH":"2026-07-06T16:57:09.285408","CLASSIFICATION_TYPE":"U","MEAN_MOTION":13.19723645,"ECCENTRICITY":0.0002134,"INCLINATION":87.9185,"RA_OF_ASC_NODE":301.087,"ARG_OF_PERICENTER":103.6944,"MEAN_ANOMALY":256.4426,"EPHEMERIS_TYPE":0,"NORAD_CAT_ID":54136,"ELEMENT_SET_NO":999,"REV_AT_EPOCH":17940,"BSTAR":-0.000034341,"MEAN_MOTION_DOT":-1e-8,"MEAN_MOTION_DDOT":0},{"OBJECT_NAME":"ONEWEB-0519","OBJECT_ID":"2022-138AA","EPOCH":"2026-07-06T08:27:40.097952","CLASSIFICATION_TYPE":"U","MEAN_MOTION":13.19727216,"ECCENTRICITY":0.00018118,"INCLINATION":87.919,"RA_OF_ASC_NODE":301.1503,"ARG_OF_PERICENTER":96.0602,"MEAN_ANOMALY":264.0737,"EPHEMERIS_TYPE":0,"NORAD_CAT_ID":54137,"ELEMENT_SET_NO":999,"REV_AT_EPOCH":17936,"BSTAR":0.0002185585,"MEAN_MOTION_DOT":0.000001,"MEAN_MOTION_DDOT":0},{"OBJECT_NAME":"ONEWEB-0520","OBJECT_ID":"2022-138AB","EPOCH":"2026-07-06T16:34:26.245056","CLASSIFICATION_TYPE":"U","MEAN_MOTION":13.19726319,"ECCENTRICITY":0.0001902,"INCLINATION":87.9193,"RA_OF_ASC_NODE":301.0831,"ARG_OF_PERICENTER":108.8965,"MEAN_ANOMALY":251.2374,"EPHEMERIS_TYPE":0,"NORAD_CAT_ID":54138,"ELEMENT_SET_NO":999,"REV_AT_EPOCH":17939,"BSTAR":-0.000069456,"MEAN_MOTION_DOT":-1.5e-7,"MEAN_MOTION_DDOT":0},{"OBJECT_NAME":"ONEWEB-0521","OBJECT_ID":"2022-138AC","EPOCH":"2026-07-06T17:22:11.109216","CLASSIFICATION_TYPE":"U","MEAN_MOTION":13.19726641,"ECCENTRICITY":0.0001842,"INCLINATION":87.9194,"RA_OF_ASC_NODE":301.0653,"ARG_OF_PERICENTER":94.3052,"MEAN_ANOMALY":265.8292,"EPHEMERIS_TYPE":0,"NORAD_CAT_ID":54139,"ELEMENT_SET_NO":999,"REV_AT_EPOCH":17934,"BSTAR":0.00018511,"MEAN_MOTION_DOT":8.7e-7,"MEAN_MOTION_DDOT":0},{"OBJECT_NAME":"ONEWEB-0522","OBJECT_ID":"2022-138AD","EPOCH":"2026-07-06T16:52:38.116416","CLASSIFICATION_TYPE":"U","MEAN_MOTION":13.19726182,"ECCENTRICITY":0.0001862,"INCLINATION":87.9196,"RA_OF_ASC_NODE":301.0721,"ARG_OF_PERICENTER":104.2014,"MEAN_ANOMALY":255.9326,"EPHEMERIS_TYPE":0,"NORAD_CAT_ID":54140,"ELEMENT_SET_NO":999,"REV_AT_EPOCH":17938,"BSTAR":-0.000035174,"MEAN_MOTION_DOT":-1e-8,"MEAN_MOTION_DDOT":0},{"OBJECT_NAME":"ONEWEB-0523","OBJECT_ID":"2022-138AE","EPOCH":"2026-07-06T17:25:33.806208","CLASSIFICATION_TYPE":"U","MEAN_MOTION":13.20772085,"ECCENTRICITY":0.0002527,"INCLINATION":87.9195,"RA_OF_ASC_NODE":270.548,"ARG_OF_PERICENTER":83.5669,"MEAN_ANOMALY":276.5752,"EPHEMERIS_TYPE":0,"NORAD_CAT_ID":54141,"ELEMENT_SET_NO":999,"REV_AT_EPOCH":18188,"BSTAR":0.00024474,"MEAN_MOTION_DOT":0.00000112,"MEAN_MOTION_DDOT":0},{"OBJECT_NAME":"ONEWEB-0524","OBJECT_ID":"2022-138AF","EPOCH":"2026-07-06T17:11:01.465152","CLASSIFICATION_TYPE":"U","MEAN_MOTION":13.20772237,"ECCENTRICITY":0.0002939,"INCLINATION":87.9194,"RA_OF_ASC_NODE":270.5464,"ARG_OF_PERICENTER":99.0559,"MEAN_ANOMALY":261.0907,"EPHEMERIS_TYPE":0,"NORAD_CAT_ID":54142,"ELEMENT_SET_NO":999,"REV_AT_EPOCH":18188,"BSTAR":0.0000089836,"MEAN_MOTION_DOT":1.7e-7,"MEAN_MOTION_DDOT":0},{"OBJECT_NAME":"ONEWEB-0525","OBJECT_ID":"2022-138AG","EPOCH":"2026-07-06T08:14:01.399200","CLASSIFICATION_TYPE":"U","MEAN_MOTION":13.19726686,"ECCENTRICITY":0.00019895,"INCLINATION":87.9192,"RA_OF_ASC_NODE":301.1508,"ARG_OF_PERICENTER":111.9576,"MEAN_ANOMALY":248.1769,"EPHEMERIS_TYPE":0,"NORAD_CAT_ID":54143,"ELEMENT_SET_NO":999,"REV_AT_EPOCH":17935,"BSTAR":0.00019110458,"MEAN_MOTION_DOT":8.9e-7,"MEAN_MOTION_DDOT":0},{"OBJECT_NAME":"ONEWEB-0526","OBJECT_ID":"2022-138AH","EPOCH":"2026-07-06T07:12:36.102240","CLASSIFICATION_TYPE":"U","MEAN_MOTION":13.19727106,"ECCENTRICITY":0.00020237,"INCLINATION":87.9193,"RA_OF_ASC_NODE":301.16,"ARG_OF_PERICENTER":104.5079,"MEAN_ANOMALY":255.6279,"EPHEMERIS_TYPE":0,"NORAD_CAT_ID":54144,"ELEMENT_SET_NO":999,"REV_AT_EPOCH":17932,"BSTAR":0.000044452383,"MEAN_MOTION_DOT":3.1e-7,"MEAN_MOTION_DDOT":0},{"OBJECT_NAME":"ONEWEB-0529","OBJECT_ID":"2022-138AJ","EPOCH":"2026-07-06T20:01:25.007808","CLASSIFICATION_TYPE":"U","MEAN_MOTION":13.19725589,"ECCENTRICITY":0.0001933,"INCLINATION":87.9187,"RA_OF_ASC_NODE":301.0614,"ARG_OF_PERICENTER":107.3399,"MEAN_ANOMALY":252.7945,"EPHEMERIS_TYPE":0,"NORAD_CAT_ID":54145,"ELEMENT_SET_NO":999,"REV_AT_EPOCH":17941,"BSTAR":0.0000080733,"MEAN_MOTION_DOT":1.6e-7,"MEAN_MOTION_DDOT":0},{"OBJECT_NAME":"ONEWEB-0531","OBJECT_ID":"2022-138AK","EPOCH":"2026-07-06T16:51:37.469664","CLASSIFICATION_TYPE":"U","MEAN_MOTION":13.20772931,"ECCENTRICITY":0.0002777,"INCLINATION":87.9191,"RA_OF_ASC_NODE":270.5462,"ARG_OF_PERICENTER":86.8825,"MEAN_ANOMALY":273.2626,"EPHEMERIS_TYPE":0,"NORAD_CAT_ID":54146,"ELEMENT_SET_NO":999,"REV_AT_EPOCH":18188,"BSTAR":0.000042644,"MEAN_MOTION_DOT":3e-7,"MEAN_MOTION_DDOT":0},{"OBJECT_NAME":"ONEWEB-0535","OBJECT_ID":"2022-138AL","EPOCH":"2026-07-06T17:10:48.587232","CLASSIFICATION_TYPE":"U","MEAN_MOTION":13.19726573,"ECCENTRICITY":0.0002034,"INCLINATION":87.9193,"RA_OF_ASC_NODE":301.0704,"ARG_OF_PERICENTER":91.0082,"MEAN_ANOMALY":269.1283,"EPHEMERIS_TYPE":0,"NORAD_CAT_ID":54147,"ELEMENT_SET_NO":999,"REV_AT_EPOCH":17941,"BSTAR":0.000066523,"MEAN_MOTION_DOT":4e-7,"MEAN_MOTION_DDOT":0},{"OBJECT_NAME":"ONEWEB-0536","OBJECT_ID":"2022-138AM","EPOCH":"2026-07-06T16:32:13.737696","CLASSIFICATION_TYPE":"U","MEAN_MOTION":13.20773057,"ECCENTRICITY":0.0002944,"INCLINATION":87.9181,"RA_OF_ASC_NODE":270.5693,"ARG_OF_PERICENTER":88.5818,"MEAN_ANOMALY":271.5652,"EPHEMERIS_TYPE":0,"NORAD_CAT_ID":54148,"ELEMENT_SET_NO":999,"REV_AT_EPOCH":18187,"BSTAR":-0.00011075,"MEAN_MOTION_DOT":-3.2e-7,"MEAN_MOTION_DDOT":0},{"OBJECT_NAME":"ONEWEB-0527","OBJECT_ID":"2022-166A","EPOCH":"2026-07-06T15:08:06.071712","CLASSIFICATION_TYPE":"U","MEAN_MOTION":13.21826962,"ECCENTRICITY":0.0002076,"INCLINATION":87.9238,"RA_OF_ASC_NODE":240.128,"ARG_OF_PERICENTER":98.6092,"MEAN_ANOMALY":261.5277,"EPHEMERIS_TYPE":0,"NORAD_CAT_ID":54642,"ELEMENT_SET_NO":999,"REV_AT_EPOCH":17410,"BSTAR":0.000085129,"MEAN_MOTION_DOT":4.8e-7,"MEAN_MOTION_DDOT":0}]}
